COMMENT,ORIGINATOR,NORAD_CAT_ID,OBJECT_NAME,OBJECT_TYPE,CLASSIFICATION_TYPE,INTLDES,EPOCH,EPOCH_MICROSECONDS,MEAN_MOTION,ECCENTRICITY,INCLINATION,RA_OF_ASC_NODE,ARG_OF_PERICENTER,MEAN_ANOMALY,EPHEMERIS_TYPE,ELEMENT_SET_NO,REV_AT_EPOCH,BSTAR,MEAN_MOTION_DOT,MEAN_MOTION_DDOT,FILE,TLE_LINE0,TLE_LINE1,TLE_LINE2,OBJECT_ID,OBJECT_NUMBER,SEMIMAJOR_AXIS,PERIOD,APOGEE,PERIGEE,DECAYED
GENERATED VIA SPACETRACK.ORG API,18 SPCS,33436,ASTRA 1M,PAYLOAD,U,08057A,2024-03-17 04:16:18,761952,1.00269984,0.0001401,0.0174,137.6312,258.7941,222.0641,0,999,3749,0,0.00000107,0,4230125,0 ASTRA 1M,1 33436U 08057A   24077.17799493  .00000107  00000-0  00000-0 0  9996,2 33436   0.0174 137.6312 0001401 258.7941 222.0641  1.00269984 37497,2008-057A,33436,42165.237,1436.123,35793.009,35781.195,0
GENERATED VIA SPACETRACK.ORG API,18 SPCS,8832,TITAN 3C TRANSTAGE DEB,DEBRIS,U,76023J,2024-03-17 04:09:47,787264,0.98261586,0.0137766,20.1312,53.1044,73.7355,105.7842,0,999,10952,0,-0.00000279,0,4230125,0 TITAN 3C TRANSTAGE DEB,1 08832U 76023J   24077.17346976 -.00000279  00000-0  00000-0 0  9991,2 08832  20.1312  53.1044 0137766  73.7355 105.7842  0.98261586109528,1976-023J,8832,42737.849,1465.476,36948.496,35770.932,0
GENERATED VIA SPACETRACK.ORG API,18 SPCS,25967,UFO 10 (USA 146),PAYLOAD,U,99063A,2024-03-17 03:58:42,699072,1.00274118,0.0003107,9.4151,31.0293,285.3672,255.6689,0,999,8909,0,-0.00000197,0,4229377,0 UFO 10 (USA 146),1 25967U 99063A   24077.16577198 -.00000197  00000-0  00000+0 0  9997,2 25967   9.4151  31.0293 0003107 285.3672 255.6689  1.00274118 89094,1999-063A,25967,42164.078,1436.063,35799.043,35772.843,0
GENERATED VIA SPACETRACK.ORG API,18 SPCS,25967,UFO 10 (USA 146),PAYLOAD,U,99063A,2024-03-17 03:58:42,699072,1.00274118,0.0003107,9.4151,31.0293,285.3672,255.6689,0,999,8910,0,-0.00000197,0,4230125,0 UFO 10 (USA 146),1 25967U 99063A   24077.16577198 -.00000197  00000-0  00000-0 0  9998,2 25967   9.4151  31.0293 0003107 285.3672 255.6689  1.00274118 89106,1999-063A,25967,42164.078,1436.063,35799.043,35772.843,0
GENERATED VIA SPACETRACK.ORG API,18 SPCS,33436,ASTRA 1M,PAYLOAD,U,08057A,2024-03-17 02:33:18,346176,1.00269942,0.0001397,0.0174,137.2847,259.0871,196.2957,0,999,5623,0,0.00000107,0,4229167,0 ASTRA 1M,1 33436U 08057A   24077.10646234  .00000107  00000-0  00000+0 0  9992,2 33436   0.0174 137.2847 0001397 259.0871 196.2957  1.00269942 56235,2008-057A,33436,42165.249,1436.123,35793.004,35781.223,0
GENERATED VIA SPACETRACK.ORG API,18 SPCS,43454,TITAN 3C TRANSTAGE DEB,DEBRIS,U,69013M,2024-03-17 00:17:26,612448,1.02846539,0.0561375,1.4423,246.1144,213.2925,142.2318,0,999,2217,0,-0.00000286,0,4229243,0 TITAN 3C TRANSTAGE DEB,1 43454U 69013M   24077.01211357 -.00000286  00000-0  00000+0 0  9995,2 43454   1.4423 246.1144 0561375 213.2925 142.2318  1.02846539 22170,1969-013M,43454,41458.036,1400.144,37407.251,32752.550,0
GENERATED VIA SPACETRACK.ORG API,18 SPCS,43454,TITAN 3C TRANSTAGE DEB,DEBRIS,U,69013M,2024-03-17 00:17:26,612448,1.02846539,0.0561375,1.4423,246.1144,213.2925,142.2318,0,999,2217,0,-0.00000287,0,4230125,0 TITAN 3C TRANSTAGE DEB,1 43454U 69013M   24077.01211357 -.00000287  00000-0  00000-0 0  9997,2 43454   1.4423 246.1144 0561375 213.2925 142.2318  1.02846539 22170,1969-013M,43454,41458.036,1400.144,37407.251,32752.550,0
GENERATED VIA SPACETRACK.ORG API,18 SPCS,44066,S5 DEB,DEBRIS,U,19009E,2024-03-16 23:27:32,489568,0.98983572,0.0004524,4.4697,80.6051,202.6209,157.5772,0,999,1822,0,-0.00000051,0,4229059,0 S5 DEB,1 44066U 19009E   24076.97745937 -.00000051  00000-0  00000+0 0  9995,2 44066   4.4697  80.6051 0004524 202.6209 157.5772  0.98983572 18226,2019-009E,44066,42529.776,1454.787,36170.881,36132.400,0
GENERATED VIA SPACETRACK.ORG API,18 SPCS,44066,S5 DEB,DEBRIS,U,19009E,2024-03-16 23:27:32,241600,0.98983593,0.0004496,4.4697,80.6049,202.6656,157.5325,0,999,1822,0,-0.00000051,0,4230125,0 S5 DEB,1 44066U 19009E   24076.97745650 -.00000051  00000-0  00000-0 0  9998,2 44066   4.4697  80.6049 0004496 202.6656 157.5325  0.98983593 18224,2019-009E,44066,42529.770,1454.787,36170.756,36132.513,0
GENERATED VIA SPACETRACK.ORG API,18 SPCS,22787,UFO 2 (USA 95),PAYLOAD,U,93056A,2024-03-16 23:09:47,892096,1.00275458,0.0004453,11.6309,7.8372,8.3166,174.9841,0,999,11041,0,0.00000116,0,4229179,0 UFO 2 (USA 95),1 22787U 93056A   24076.96513764  .00000116  00000-0  00000+0 0  9996,2 22787  11.6309   7.8372 0004453   8.3166 174.9841  1.00275458110418,1993-056A,22787,42163.702,1436.044,35804.343,35766.792,0
GENERATED VIA SPACETRACK.ORG API,18 SPCS,22787,UFO 2 (USA 95),PAYLOAD,U,93056A,2024-03-16 23:09:47,892096,1.00275458,0.0004453,11.6309,7.8372,8.3166,174.9841,0,999,11030,0,0.00000116,0,4230125,0 UFO 2 (USA 95),1 22787U 93056A   24076.96513764  .00000116  00000-0  00000-0 0  9997,2 22787  11.6309   7.8372 0004453   8.3166 174.9841  1.00275458110306,1993-056A,22787,42163.702,1436.044,35804.343,35766.792,0
GENERATED VIA SPACETRACK.ORG API,18 SPCS,44479,AMOS 17,PAYLOAD,U,19050A,2024-03-16 21:55:42,604320,1.00269996,0.0001608,0.0151,118.5512,245.3979,156.9198,0,999,1694,0,0.00000097,0,4229019,0 AMOS 17,1 44479U 19050A   24076.91368755  .00000097  00000-0  00000-0 0  9992,2 44479   0.0151 118.5512 0001608 245.3979 156.9198  1.00269996 16945,2019-050A,44479,42165.233,1436.123,35793.879,35780.318,0
GENERATED VIA SPACETRACK.ORG API,18 SPCS,41469,IRNSS 1G,PAYLOAD,U,16027A,2024-03-16 21:55:36,791328,1.00270508,0.0005306,3.2342,122.6177,297.7645,213.0232,0,999,2893,0,-0.00000348,0,4229019,0 IRNSS 1G,1 41469U 16027A   24076.91362027 -.00000348  00000-0  00000-0 0  9995,2 41469   3.2342 122.6177 0005306 297.7645 213.0232  1.00270508 28938,2016-027A,41469,42165.090,1436.115,35809.328,35764.582,0
GENERATED VIA SPACETRACK.ORG API,18 SPCS,44307,YAMAL 601,PAYLOAD,U,19031A,2024-03-16 21:32:33,339840,1.00270401,0.000238,0.0073,171.0651,175.9211,200.0909,0,999,1767,0,0.00000108,0,4229019,0 YAMAL 601,1 44307U 19031A   24076.89760810  .00000108  00000-0  00000-0 0  9999,2 44307   0.0073 171.0651 0002380 175.9211 200.0909  1.00270401 17676,2019-031A,44307,42165.120,1436.117,35797.020,35776.950,0
GENERATED VIA SPACETRACK.ORG API,18 SPCS,33436,ASTRA 1M,PAYLOAD,U,08057A,2024-03-16 21:24:02,65248,1.00269799,0.0001382,0.0172,139.3244,256.1874,119.6273,0,999,3749,0,0.00000107,0,4229019,0 ASTRA 1M,1 33436U 08057A   24076.89169057  .00000107  00000-0  00000-0 0  9991,2 33436   0.0172 139.3244 0001382 256.1874 119.6273  1.00269799 37499,2008-057A,33436,42165.289,1436.125,35792.981,35781.326,0
GENERATED VIA SPACETRACK.ORG API,18 SPCS,42749,ECHOSTAR 21,PAYLOAD,U,17032A,2024-03-16 21:21:24,171840,1.00271262,0.0002469,2.6988,317.9169,24.9188,162.6862,0,999,2486,0,0.00000053,0,4229019,0 ECHOSTAR 21,1 42749U 17032A   24076.88986310  .00000053  00000-0  00000-0 0  9999,2 42749   2.6988 317.9169 0002469  24.9188 162.6862  1.00271262 24862,2017-032A,42749,42164.879,1436.104,35797.154,35776.333,0
GENERATED VIA SPACETRACK.ORG API,18 SPCS,42915,TDRS 13,PAYLOAD,U,17047A,2024-03-16 21:15:15,752736,1.00272043,0.0014142,3.718,342.7288,105.7386,33.7595,0,999,2410,0,-0.0000011,0,4229019,0 TDRS 13,1 42915U 17047A   24076.88559899 -.00000110  00000-0  00000-0 0  9993,2 42915   3.7180 342.7288 0014142 105.7386  33.7595  1.00272043 24106,2017-047A,42915,42164.660,1436.093,35846.154,35726.895,0
GENERATED VIA SPACETRACK.ORG API,18 SPCS,33373,NIMIQ 4,PAYLOAD,U,08044A,2024-03-16 20:54:57,784896,1.0027228,0.000197,0.0212,231.0782,117.1994,58.3707,0,999,5673,0,-0.00000232,0,4229019,0 NIMIQ 4,1 33373U 08044A   24076.87150214 -.00000232  00000-0  00000-0 0  9990,2 33373   0.0212 231.0782 0001970 117.1994  58.3707  1.00272280 56731,2008-044A,33373,42164.593,1436.090,35794.765,35778.152,0
GENERATED VIA SPACETRACK.ORG API,18 SPCS,22988,USA 99,PAYLOAD,U,94009A,2024-03-16 20:52:42,447072,1.00270921,0.0003089,16.3675,36.4141,308.9186,52.7608,0,999,2472,0,-0.00000207,0,4229019,0 USA 99,1 22988U 94009A   24076.86993573 -.00000207  00000-0  00000-0 0  9990,2 22988  16.3675  36.4141 0003089 308.9186  52.7608  1.00270921 24728,1994-009A,22988,42164.974,1436.109,35799.864,35773.814,0
GENERATED VIA SPACETRACK.ORG API,18 SPCS,41937,SBIRS GEO 4 (USA 273),PAYLOAD,U,17004A,2024-03-16 20:50:42,147168,1.00271605,0.0002442,1.4489,350.9087,353.8514,46.0157,0,999,2636,0,-0.00000155,0,4229019,0 SBIRS GEO 4 (USA 273),1 41937U 17004A   24076.86854337 -.00000155  00000-0  00000-0 0  9991,2 41937   1.4489 350.9087 0002442 353.8514  46.0157  1.00271605 26367,2017-004A,41937,42164.782,1436.099,35796.944,35776.351,0
GENERATED VIA SPACETRACK.ORG API,18 SPCS,44479,AMOS 17,PAYLOAD,U,19050A,2024-03-16 20:25:52,701888,1.00269979,0.0001608,0.0148,119.2547,243.746,135.3492,0,999,1693,0,0.00000097,0,4228958,0 AMOS 17,1 44479U 19050A   24076.85130442  .00000097  00000-0  00000+0 0  9994,2 44479   0.0148 119.2547 0001608 243.7460 135.3492  1.00269979 16932,2019-050A,44479,42165.238,1436.123,35793.883,35780.323,0
GENERATED VIA SPACETRACK.ORG API,18 SPCS,22787,UFO 2 (USA 95),PAYLOAD,U,93056A,2024-03-16 20:20:52,497312,1.002754,0.0004451,11.631,7.8378,8.1444,132.8077,0,999,11030,0,0.00000116,0,4229019,0 UFO 2 (USA 95),1 22787U 93056A   24076.84782983  .00000116  00000-0  00000-0 0  9995,2 22787  11.6310   7.8378 0004451   8.1444 132.8077  1.00275400110300,1993-056A,22787,42163.719,1436.045,35804.351,35766.817,0
GENERATED VIA SPACETRACK.ORG API,18 SPCS,41384,IRNSS 1F,PAYLOAD,U,16015A,2024-03-16 19:44:39,765408,1.00271718,0.0019514,3.3535,121.3451,190.9144,191.2278,0,999,2942,0,0.00000146,0,4229019,0 IRNSS 1F,1 41384U 16015A   24076.82268247  .00000146  00000-0  00000-0 0  9992,2 41384   3.3535 121.3451 0019514 190.9144 191.2278  1.00271718 29420,2016-015A,41384,42164.751,1436.098,35868.896,35704.335,0
